GPS BIIRM-5 (PRN 29)    
1 32384U 07062A   24141.94448677 -.00000057  00000+0  00000+0 0  9997
2 32384  55.6622 304.4444 0027921 149.3552  24.4034  2.00573364120326
